[Satellite]
VERSION=1.1
NAME=BUGSAT-1 (TITA)
NICKNAME=BUGSAT-1 (TITA)
TLE1=1 40014U 14033E   15055.53157743  .00002012  00000-0  19848-3 0  9999
TLE2=2 40014  97.9745 318.4150 0032014 239.4048 120.3999 14.92813446 37234
